start=new Date('2022-09-08T00:00:00.000Z').valueOf();
sats=[{"ECCENTRICITY":"0.00013870","MEAN_MOTION":"15.06382807","TIME_SYSTEM":"UTC","REV_AT_EPOCH":"11152","RA_OF_ASC_NODE":"358.7141","SEMIMAJOR_AXIS":"6925.401","OBJECT_NAME":"STARLINK-1690","EPHEMERIS_TYPE":"0","ARG_OF_PERICENTER":"84.3139","COUNTRY_CODE":"US","APOAPSIS":"548.227","ELEMENT_SET_NO":"999","PERIOD":"95.593","SITE":"AFETR","MEAN_MOTION_DDOT":"0.0000000000000","NORAD_CAT_ID":"46358","PERIAPSIS":"546.306","MEAN_MOTION_DOT":"0.00002438","GP_ID":"212007418","CLASSIFICATION_TYPE":"U","DECAY_DATE":null,"TLE_LINE2":"2 46358  53.0553 358.7141 0001387  84.3139 275.8008 15.06382807111525","RCS_SIZE":"LARGE","LAUNCH_DATE":"2020-09-03","INCLINATION":"53.0553","OBJECT_ID":"2020-062AK","BSTAR":"0.00018261000000","OBJECT_TYPE":"PAYLOAD","TLE_LINE1":"1 46358U 20062AK  22250.59278363  .00002438  00000-0  18261-3 0  9998","FILE":"3563022","REF_FRAME":"TEME","MEAN_ANOMALY":"275.8008","MEAN_ELEMENT_THEORY":"SGP4","CENTER_NAME":"EARTH","EPOCH":"2022-09-07T14:13:36.505632"},{"EPHEMERIS_TYPE":"0","ARG_OF_PERICENTER":"74.1713","MEAN_MOTION":"15.06391008","ECCENTRICITY":"0.00015040","REV_AT_EPOCH":"11212","TIME_SYSTEM":"UTC","RA_OF_ASC_NODE":"314.4079","SEMIMAJOR_AXIS":"6925.376","OBJECT_NAME":"STARLINK-1707","MEAN_MOTION_DOT":"0.00000496","GP_ID":"211962910","CLASSIFICATION_TYPE":"U","RCS_SIZE":"LARGE","TLE_LINE2":"2 46359  53.0544 314.4079 0001504  74.1713 285.9442 15.06391008112125","DECAY_DATE":null,"LAUNCH_DATE":"2020-09-03","COUNTRY_CODE":"US","ELEMENT_SET_NO":"999","APOAPSIS":"548.283","PERIOD":"95.593","SITE":"AFETR","MEAN_MOTION_DDOT":"0.0000000000000","NORAD_CAT_ID":"46359","PERIAPSIS":"546.200","OBJECT_TYPE":"PAYLOAD","INCLINATION":"53.0544","OBJECT_ID":"2020-062AL","BSTAR":"0.00005222200000","REF_FRAME":"TEME","MEAN_ANOMALY":"285.9442","MEAN_ELEMENT_THEORY":"SGP4","EPOCH":"2022-09-07T10:33:59.433408","CENTER_NAME":"EARTH","TLE_LINE1":"1 46359U 20062AL  22250.44027122  .00000496  00000-0  52222-4 0  9996","FILE":"3562217"},{"CLASSIFICATION_TYPE":"U","MEAN_MOTION_DOT":"-0.00001507","GP_ID":"212006917","LAUNCH_DATE":"2020-09-03","RCS_SIZE":"LARGE","TLE_LINE2":"2 46360  53.0539 313.4121 0001702  69.5307 290.5864 15.06378794112166","DECAY_DATE":null,"COUNTRY_CODE":"US","ELEMENT_SET_NO":"999","APOAPSIS":"548.457","PERIOD":"95.593","SITE":"AFETR","MEAN_MOTION_DDOT":"0.0000000000000","PERIAPSIS":"546.100","NORAD_CAT_ID":"46360","EPHEMERIS_TYPE":"0","ARG_OF_PERICENTER":"69.5307","REV_AT_EPOCH":"11216","TIME_SYSTEM":"UTC","ECCENTRICITY":"0.00017020","MEAN_MOTION":"15.06378794","SEMIMAJOR_AXIS":"6925.414","RA_OF_ASC_NODE":"313.4121","OBJECT_NAME":"STARLINK-1713","MEAN_ANOMALY":"290.5864","REF_FRAME":"TEME","CENTER_NAME":"EARTH","EPOCH":"2022-09-07T15:52:28.244064","MEAN_ELEMENT_THEORY":"SGP4","FILE":"3563022","TLE_LINE1":"1 46360U 20062AM  22250.66143801 -.00001507  00000-0 -82309-4 0  9990","OBJECT_TYPE":"PAYLOAD","INCLINATION":"53.0539","OBJECT_ID":"2020-062AM","BSTAR":"-0.00008230900000"},{"CLASSIFICATION_TYPE":"U","MEAN_MOTION_DOT":"-0.00001849","GP_ID":"211961910","LAUNCH_DATE":"2020-09-03","TLE_LINE2":"2 46361  53.0543 314.1137 0001250  89.4920 270.6212 15.06385365112132","DECAY_DATE":null,"RCS_SIZE":"LARGE","PERIOD":"95.593","SITE":"AFETR","COUNTRY_CODE":"US","ELEMENT_SET_NO":"999","APOAPSIS":"548.124","NORAD_CAT_ID":"46361","PERIAPSIS":"546.393","MEAN_MOTION_DDOT":"0.0000000000000","EPHEMERIS_TYPE":"0","ARG_OF_PERICENTER":"89.4920","TIME_SYSTEM":"UTC","REV_AT_EPOCH":"11213","ECCENTRICITY":"0.00012500","MEAN_MOTION":"15.06385365","OBJECT_NAME":"STARLINK-1722","RA_OF_ASC_NODE":"314.1137","SEMIMAJOR_AXIS":"6925.393","MEAN_ANOMALY":"270.6212","REF_FRAME":"TEME","CENTER_NAME":"EARTH","EPOCH":"2022-09-07T11:57:34.383168","MEAN_ELEMENT_THEORY":"SGP4","FILE":"3562217","TLE_LINE1":"1 46361U 20062AN  22250.49831462 -.00001849  00000-0 -10531-3 0  9995","OBJECT_TYPE":"PAYLOAD","OBJECT_ID":"2020-062AN","INCLINATION":"53.0543","BSTAR":"-0.00010531000000"},{"NORAD_CAT_ID":"46362","PERIAPSIS":"546.265","MEAN_MOTION_DDOT":"0.0000000000000","SITE":"AFETR","PERIOD":"95.593","APOAPSIS":"548.259","COUNTRY_CODE":"US","ELEMENT_SET_NO":"999","LAUNCH_DATE":"2020-09-03","TLE_LINE2":"2 46362  53.0556 314.5326 0001440  82.1227 277.9926 15.06384266112122","DECAY_DATE":null,"RCS_SIZE":"LARGE","CLASSIFICATION_TYPE":"U","MEAN_MOTION_DOT":"-0.00001524","GP_ID":"211963160","OBJECT_NAME":"STARLINK-1726","SEMIMAJOR_AXIS":"6925.397","RA_OF_ASC_NODE":"314.5326","TIME_SYSTEM":"UTC","REV_AT_EPOCH":"11212","MEAN_MOTION":"15.06384266","ECCENTRICITY":"0.00014400","ARG_OF_PERICENTER":"82.1227","EPHEMERIS_TYPE":"0","FILE":"3562217","TLE_LINE1":"1 46362U 20062AP  22250.41079478 -.00001524  00000-0 -83460-4 0  9991","CENTER_NAME":"EARTH","EPOCH":"2022-09-07T09:51:32.668992","MEAN_ELEMENT_THEORY":"SGP4","MEAN_ANOMALY":"277.9926","REF_FRAME":"TEME","BSTAR":"-0.00008346000000","OBJECT_ID":"2020-062AP","INCLINATION":"53.0556","OBJECT_TYPE":"PAYLOAD"},{"MEAN_MOTION_DDOT":"0.0000000000000","NORAD_CAT_ID":"46363","PERIAPSIS":"546.300","COUNTRY_CODE":"US","APOAPSIS":"548.282","ELEMENT_SET_NO":"999","SITE":"AFETR","PERIOD":"95.594","TLE_LINE2":"2 46363  53.0547 314.5428 0001431  73.5621 286.5525 15.06374603112279","DECAY_DATE":null,"RCS_SIZE":"LARGE","LAUNCH_DATE":"2020-09-03","GP_ID":"211933878","MEAN_MOTION_DOT":"-0.00000470","CLASSIFICATION_TYPE":"U","RA_OF_ASC_NODE":"314.5428","SEMIMAJOR_AXIS":"6925.426","OBJECT_NAME":"STARLINK-1739","MEAN_MOTION":"15.06374603","ECCENTRICITY":"0.00014310","TIME_SYSTEM":"UTC","REV_AT_EPOCH":"11227","ARG_OF_PERICENTER":"73.5621","EPHEMERIS_TYPE":"0","TLE_LINE1":"1 46363U 20062AQ  22250.40247889 -.00000470  00000-0 -12648-4 0  9993","FILE":"3561862","MEAN_ELEMENT_THEORY":"SGP4","CENTER_NAME":"EARTH","EPOCH":"2022-09-07T09:39:34.176096","REF_FRAME":"TEME","MEAN_ANOMALY":"286.5525","BSTAR":"-0.00001264800000","INCLINATION":"53.0547","OBJECT_ID":"2020-062AQ","OBJECT_TYPE":"PAYLOAD"},{"DECAY_DATE":null,"TLE_LINE2":"2 46364  53.0550 294.4495 0001431 113.7457 246.3682 15.06390123112596","RCS_SIZE":"LARGE","LAUNCH_DATE":"2020-09-03","MEAN_MOTION_DOT":"-0.00001047","GP_ID":"211933492","CLASSIFICATION_TYPE":"U","NORAD_CAT_ID":"46364","PERIAPSIS":"546.253","MEAN_MOTION_DDOT":"0.0000000000000","SITE":"AFETR","PERIOD":"95.593","COUNTRY_CODE":"US","APOAPSIS":"548.235","ELEMENT_SET_NO":"999","ARG_OF_PERICENTER":"113.7457","EPHEMERIS_TYPE":"0","OBJECT_NAME":"STARLINK-1763","SEMIMAJOR_AXIS":"6925.379","RA_OF_ASC_NODE":"294.4495","ECCENTRICITY":"0.00014310","MEAN_MOTION":"15.06390123","TIME_SYSTEM":"UTC","REV_AT_EPOCH":"11259","MEAN_ELEMENT_THEORY":"SGP4","CENTER_NAME":"EARTH","EPOCH":"2022-09-07T12:54:45.125856","REF_FRAME":"TEME","MEAN_ANOMALY":"246.3682","TLE_LINE1":"1 46364U 20062AR  22250.53802229 -.00001047  00000-0 -51392-4 0  9993","FILE":"3561843","OBJECT_TYPE":"PAYLOAD","BSTAR":"-0.00005139200000","OBJECT_ID":"2020-062AR","INCLINATION":"53.0550"},{"TLE_LINE1":"1 46365U 20062AS  22250.44766350 -.00002806  00000-0 -16961-3 0  9994","FILE":"3562217","REF_FRAME":"TEME","MEAN_ANOMALY":"303.2946","MEAN_ELEMENT_THEORY":"SGP4","CENTER_NAME":"EARTH","EPOCH":"2022-09-07T10:44:38.126400","OBJECT_ID":"2020-062AS","INCLINATION":"53.0562","BSTAR":"-0.00016961000000","OBJECT_TYPE":"PAYLOAD","SITE":"AFETR","PERIOD":"95.593","COUNTRY_CODE":"US","ELEMENT_SET_NO":"999","APOAPSIS":"548.308","PERIAPSIS":"546.205","NORAD_CAT_ID":"46365","MEAN_MOTION_DDOT":"0.0000000000000","MEAN_MOTION_DOT":"-0.00002806","GP_ID":"211962410","CLASSIFICATION_TYPE":"U","TLE_LINE2":"2 46365  53.0562 314.3608 0001519  56.8189 303.2946 15.06385984112128","RCS_SIZE":"LARGE","DECAY_DATE":null,"LAUNCH_DATE":"2020-09-03","ECCENTRICITY":"0.00015190","MEAN_MOTION":"15.06385984","REV_AT_EPOCH":"11212","TIME_SYSTEM":"UTC","OBJECT_NAME":"STARLINK-1550","SEMIMAJOR_AXIS":"6925.392","RA_OF_ASC_NODE":"314.3608","EPHEMERIS_TYPE":"0","ARG_OF_PERICENTER":"56.8189"},{"OBJECT_NAME":"STARLINK-1651","RA_OF_ASC_NODE":"314.1161","SEMIMAJOR_AXIS":"6925.393","ECCENTRICITY":"0.00012260","MEAN_MOTION":"15.06385362","REV_AT_EPOCH":"11213","TIME_SYSTEM":"UTC","ARG_OF_PERICENTER":"86.5023","EPHEMERIS_TYPE":"0","PERIAPSIS":"546.409","NORAD_CAT_ID":"46366","MEAN_MOTION_DDOT":"0.0000000000000","PERIOD":"95.593","SITE":"AFETR","COUNTRY_CODE":"US","ELEMENT_SET_NO":"999","APOAPSIS":"548.107","TLE_LINE2":"2 46366  53.0557 314.1161 0001226  86.5023 273.6106 15.06385362112136","DECAY_DATE":null,"RCS_SIZE":"LARGE","LAUNCH_DATE":"2020-09-03","MEAN_MOTION_DOT":"-0.00000714","GP_ID":"212007419","CLASSIFICATION_TYPE":"U","BSTAR":"-0.00002905500000","OBJECT_ID":"2020-062AT","INCLINATION":"53.0557","OBJECT_TYPE":"PAYLOAD","TLE_LINE1":"1 46366U 20062AT  22250.50294467 -.00000714  00000-0 -29055-4 0  9992","FILE":"3563022","MEAN_ELEMENT_THEORY":"SGP4","CENTER_NAME":"EARTH","EPOCH":"2022-09-07T12:04:14.419488","REF_FRAME":"TEME","MEAN_ANOMALY":"273.6106"},{"TLE_LINE2":"2 46368  53.0557 337.9081 0001396  79.5422 280.5724 15.06385810111832","DECAY_DATE":null,"RCS_SIZE":"LARGE","LAUNCH_DATE":"2020-09-03","MEAN_MOTION_DOT":"0.00000237","GP_ID":"212006668","CLASSIFICATION_TYPE":"U","NORAD_CAT_ID":"46368","PERIAPSIS":"546.290","MEAN_MOTION_DDOT":"0.0000000000000","PERIOD":"95.593","SITE":"AFETR","COUNTRY_CODE":"US","APOAPSIS":"548.224","ELEMENT_SET_NO":"999","ARG_OF_PERICENTER":"79.5422","EPHEMERIS_TYPE":"0","OBJECT_NAME":"STARLINK-1658","SEMIMAJOR_AXIS":"6925.392","RA_OF_ASC_NODE":"337.9081","MEAN_MOTION":"15.06385810","ECCENTRICITY":"0.00013960","REV_AT_EPOCH":"11183","TIME_SYSTEM":"UTC","MEAN_ELEMENT_THEORY":"SGP4","EPOCH":"2022-09-07T18:24:22.799520","CENTER_NAME":"EARTH","REF_FRAME":"TEME","MEAN_ANOMALY":"280.5724","TLE_LINE1":"1 46368U 20062AV  22250.76693055  .00000237  00000-0  34800-4 0  9990","FILE":"3563022","OBJECT_TYPE":"PAYLOAD","BSTAR":"0.00003480000000","OBJECT_ID":"2020-062AV","INCLINATION":"53.0557"}];
